{"type": "FeatureCollection", "features": [ {"type": "Feature", "properties": {"norad_id": 30121, "name": "FENGYUN 1C DEB", "group": "fengyun-1c-debris", "lat": -53.27477113501243, "lon": 27.422757673459714, "alt_km": 783.3293610121809, "timestamp": "2025-12-14T11:29:50.334441+00:00", "meta": {"OBJECT_NAME": "FENGYUN 1C DEB", "OBJECT_ID": "1999-025SA", "EPOCH": "2025-12-13T16:16:58.834272", "MEAN_MOTION": 14.40014521, "ECCENTRICITY": 0.00312619, "INCLINATION": 102.1659, "RA_OF_ASC_NODE": 9.4827, "ARG_OF_PERICENTER": 162.8023, "MEAN_ANOMALY": 313.7259, "EPHEMERIS_TYPE": 0, "CLASSIFICATION_TYPE": "U", "NORAD_CAT_ID": 30121, "ELEMENT_SET_NO": 999, "REV_AT_EPOCH": 97553, "BSTAR": 0.0024320421, "MEAN_MOTION_DOT": 7.641e-05, "MEAN_MOTION_DDOT": 0}, "tle": {"line1": "1 30121U 99025SA  25347.67845873  .00007641  00000+0  24320-2 0  9991", "line2": "2 30121 102.1659   9.4827 0031261 162.8023 313.7259 14.40014521975539"}}, "geometry": {"type": "Point", "coordinates": [27.422757673459714, -53.27477113501243]}}, {"type": "Feature", "properties": {"norad_id": 30123, "name": "FENGYUN 1C DEB", "group": "fengyun-1c-debris", "lat": -10.049947446782673, "lon": -70.18312498047156, "alt_km": 804.1534311358755, "timestamp": "2025-12-14T11:29:50.334451+00:00", "meta": {"OBJECT_NAME": "FENGYUN 1C DEB", "OBJECT_ID": "1999-025SC", "EPOCH": "2025-12-13T06:54:57.398112", "MEAN_MOTION": 14.25984679, "ECCENTRICITY": 0.02306322, "INCLINATION": 96.9261, "RA_OF_ASC_NODE": 287.6391, "ARG_OF_PERICENTER": 83.162, "MEAN_ANOMALY": 279.5744, "EPHEMERIS_TYPE": 0, "CLASSIFICATION_TYPE": "U", "NORAD_CAT_ID": 30123, "ELEMENT_SET_NO": 999, "REV_AT_EPOCH": 97255, "BSTAR": 0.0025760381, "MEAN_MOTION_DOT": 8.107e-05, "MEAN_MOTION_DDOT": 0}, "tle": {"line1": "1 30123U 99025SC  25347.28816433  .00008107  00000+0  25760-2 0  9997", "line2": "2 30123  96.9261 287.6391 0230632  83.1620 279.5744 14.25984679972557"}}, "geometry": {"type": "Point", "coordinates": [-70.18312498047156, -10.049947446782673]}}, {"type": "Feature", "properties": {"norad_id": 30124, "name": "FENGYUN 1C DEB", "group": "fengyun-1c-debris", "lat": -24.303116586082524, "lon": -141.7816765034976, "alt_km": 873.2769583127574, "timestamp": "2025-12-14T11:29:50.334462+00:00", "meta": {"OBJECT_NAME": "FENGYUN 1C DEB", "OBJECT_ID": "1999-025SD", "EPOCH": "2025-12-13T16:26:58.096896", "MEAN_MOTION": 14.1423564, "ECCENTRICITY": 0.01432946, "INCLINATION": 99.132, "RA_OF_ASC_NODE": 41.5726, "ARG_OF_PERICENTER": 103.1695, "MEAN_ANOMALY": 21.2653, "EPHEMERIS_TYPE": 0, "CLASSIFICATION_TYPE": "U", "NORAD_CAT_ID": 30124, "ELEMENT_SET_NO": 999, "REV_AT_EPOCH": 96928, "BSTAR": 0.0012828763, "MEAN_MOTION_DOT": 2.657e-05, "MEAN_MOTION_DDOT": 0}, "tle": {"line1": "1 30124U 99025SD  25347.68539464  .00002657  00000+0  12829-2 0  9994", "line2": "2 30124  99.1320  41.5726 0143294 103.1695  21.2653 14.14235640969282"}}, "geometry": {"type": "Point", "coordinates": [-141.7816765034976, -24.303116586082524]}}, {"type": "Feature", "properties": {"norad_id": 30125, "name": "FENGYUN 1C DEB", "group": "fengyun-1c-debris", "lat": 52.8750194806437, "lon": 75.56333656207748, "alt_km": 738.5618802587423, "timestamp": "2025-12-14T11:29:50.334472+00:00", "meta": {"OBJECT_NAME": "FENGYUN 1C DEB", "OBJECT_ID": "1999-025SE", "EPOCH": "2025-12-13T06:52:08.340960", "MEAN_MOTION": 14.22659443, "ECCENTRICITY": 0.03422211, "INCLINATION": 98.7232, "RA_OF_ASC_NODE": 86.082, "ARG_OF_PERICENTER": 342.6015, "MEAN_ANOMALY": 81.6571, "EPHEMERIS_TYPE": 0, "CLASSIFICATION_TYPE": "U", "NORAD_CAT_ID": 30125, "ELEMENT_SET_NO": 999, "REV_AT_EPOCH": 96929, "BSTAR": 0.001151197, "MEAN_MOTION_DOT": 4.657e-05, "MEAN_MOTION_DDOT": 0}, "tle": {"line1": "1 30125U 99025SE  25347.28620765  .00004657  00000+0  11512-2 0  9996", "line2": "2 30125  98.7232  86.0820 0342221 342.6015  81.6571 14.22659443969296"}}, "geometry": {"type": "Point", "coordinates": [75.56333656207748, 52.8750194806437]}}, {"type": "Feature", "properties": {"norad_id": 30127, "name": "FENGYUN 1C DEB", "group": "fengyun-1c-debris", "lat": -15.728371766174392, "lon": 22.57898392617133, "alt_km": 801.5547185114992, "timestamp": "2025-12-14T11:29:50.334482+00:00", "meta": {"OBJECT_NAME": "FENGYUN 1C DEB", "OBJECT_ID": "1999-025SG", "EPOCH": "2025-12-12T13:30:34.403616", "MEAN_MOTION": 14.37991167, "ECCENTRICITY": 0.0085219, "INCLINATION": 98.2071, "RA_OF_ASC_NODE": 203.0776, "ARG_OF_PERICENTER": 79.6451, "MEAN_ANOMALY": 281.433, "EPHEMERIS_TYPE": 0, "CLASSIFICATION_TYPE": "U", "NORAD_CAT_ID": 30127, "ELEMENT_SET_NO": 999, "REV_AT_EPOCH": 97233, "BSTAR": 0.0032770826, "MEAN_MOTION_DOT": 0.00010308, "MEAN_MOTION_DDOT": 0}, "tle": {"line1": "1 30127U 99025SG  25346.56289819  .00010308  00000+0  32771-2 0  9999", "line2": "2 30127  98.2071 203.0776 0085219  79.6451 281.4330 14.37991167972337"}}, "geometry": {"type": "Point", "coordinates": [22.57898392617133, -15.728371766174392]}}, {"type": "Feature", "properties": {"norad_id": 30128, "name": "FENGYUN 1C DEB", "group": "fengyun-1c-debris", "lat": -43.94197087794794, "lon": 160.14095270769752, "alt_km": 763.7126460492091, "timestamp": "2025-12-14T11:29:50.334492+00:00", "meta": {"OBJECT_NAME": "FENGYUN 1C DEB", "OBJECT_ID": "1999-025SH", "EPOCH": "2025-12-13T06:49:50.471616", "MEAN_MOTION": 14.46128657, "ECCENTRICITY": 0.01074748, "INCLINATION": 96.9806, "RA_OF_ASC_NODE": 345.9376, "ARG_OF_PERICENTER": 123.1834, "MEAN_ANOMALY": 5.2178, "EPHEMERIS_TYPE": 0, "CLASSIFICATION_TYPE": "U", "NORAD_CAT_ID": 30128, "ELEMENT_SET_NO": 999, "REV_AT_EPOCH": 97319, "BSTAR": 0.0041532569, "MEAN_MOTION_DOT": 0.00015933, "MEAN_MOTION_DDOT": 0}, "tle": {"line1": "1 30128U 99025SH  25347.28461194  .00015933  00000+0  41533-2 0  9993", "line2": "2 30128  96.9806 345.9376 0107474 123.1834   5.2178 14.46128657973192"}}, "geometry": {"type": "Point", "coordinates": [160.14095270769752, -43.94197087794794]}}, {"type": "Feature", "properties": {"norad_id": 30129, "name": "FENGYUN 1C DEB", "group": "fengyun-1c-debris", "lat": -78.04350669082841, "lon": 68.33645053411306, "alt_km": 1031.9009402349175, "timestamp": "2025-12-14T11:29:50.334502+00:00", "meta": {"OBJECT_NAME": "FENGYUN 1C DEB", "OBJECT_ID": "1999-025SJ", "EPOCH": "2025-12-13T02:00:18.079776", "MEAN_MOTION": 14.01578729, "ECCENTRICITY": 0.0188669, "INCLINATION": 98.0275, "RA_OF_ASC_NODE": 288.8969, "ARG_OF_PERICENTER": 91.4359, "MEAN_ANOMALY": 332.0708, "EPHEMERIS_TYPE": 0, "CLASSIFICATION_TYPE": "U", "NORAD_CAT_ID": 30129, "ELEMENT_SET_NO": 999, "REV_AT_EPOCH": 96483, "BSTAR": 0.0007367377, "MEAN_MOTION_DOT": 1.268e-05, "MEAN_MOTION_DDOT": 0}, "tle": {"line1": "1 30129U 99025SJ  25347.08354259  .00001268  00000+0  73674-3 0  9993", "line2": "2 30129  98.0275 288.8969 0188669  91.4359 332.0708 14.01578729964834"}}, "geometry": {"type": "Point", "coordinates": [68.33645053411306, -78.04350669082841]}}, {"type": "Feature", "properties": {"norad_id": 30131, "name": "FENGYUN 1C DEB", "group": "fengyun-1c-debris", "lat": 80.50251550371023, "lon": -26.819815654990776, "alt_km": 784.8482521062142, "timestamp": "2025-12-14T11:29:50.334512+00:00", "meta": {"OBJECT_NAME": "FENGYUN 1C DEB", "OBJECT_ID": "1999-025SL", "EPOCH": "2025-12-13T13:10:00.552000", "MEAN_MOTION": 14.21202073, "ECCENTRICITY": 0.00826343, "INCLINATION": 99.0752, "RA_OF_ASC_NODE": 79.4055, "ARG_OF_PERICENTER": 156.7412, "MEAN_ANOMALY": 219.0861, "EPHEMERIS_TYPE": 0, "CLASSIFICATION_TYPE": "U", "NORAD_CAT_ID": 30131, "ELEMENT_SET_NO": 999, "REV_AT_EPOCH": 96700, "BSTAR": 0.0033634679, "MEAN_MOTION_DOT": 7.538e-05, "MEAN_MOTION_DDOT": 0}, "tle": {"line1": "1 30131U 99025SL  25347.54861750  .00007538  00000+0  33635-2 0  9994", "line2": "2 30131  99.0752  79.4055 0082634 156.7412 219.0861 14.21202073967002"}}, "geometry": {"type": "Point", "coordinates": [-26.819815654990776, 80.50251550371023]}}, {"type": "Feature", "properties": {"norad_id": 30132, "name": "FENGYUN 1C DEB", "group": "fengyun-1c-debris", "lat": -77.43241645382824, "lon": -8.643347230908322, "alt_km": 964.6812031248764, "timestamp": "2025-12-14T11:29:50.334522+00:00", "meta": {"OBJECT_NAME": "FENGYUN 1C DEB", "OBJECT_ID": "1999-025SM", "EPOCH": "2025-12-13T16:04:40.180800", "MEAN_MOTION": 13.94850987, "ECCENTRICITY": 0.01056534, "INCLINATION": 99.5773, "RA_OF_ASC_NODE": 301.2874, "ARG_OF_PERICENTER": 47.2555, "MEAN_ANOMALY": 130.9854, "EPHEMERIS_TYPE": 0, "CLASSIFICATION_TYPE": "U", "NORAD_CAT_ID": 30132, "ELEMENT_SET_NO": 999, "REV_AT_EPOCH": 96102, "BSTAR": 0.00050056943, "MEAN_MOTION_DOT": 6.57e-06, "MEAN_MOTION_DDOT": 0}, "tle": {"line1": "1 30132U 99025SM  25347.66990950  .00000657  00000+0  50057-3 0  9996", "line2": "2 30132  99.5773 301.2874 0105653  47.2555 130.9854 13.94850987961026"}}, "geometry": {"type": "Point", "coordinates": [-8.643347230908322, -77.43241645382824]}}, {"type": "Feature", "properties": {"norad_id": 30133, "name": "FENGYUN 1C DEB", "group": "fengyun-1c-debris", "lat": -56.59860242946709, "lon": -37.79650372162521, "alt_km": 818.7488358605224, "timestamp": "2025-12-14T11:29:50.334557+00:00", "meta": {"OBJECT_NAME": "FENGYUN 1C DEB", "OBJECT_ID": "1999-025SN", "EPOCH": "2025-12-13T10:35:38.726016", "MEAN_MOTION": 14.06677961, "ECCENTRICITY": 0.00855697, "INCLINATION": 98.3242, "RA_OF_ASC_NODE": 154.0765, "ARG_OF_PERICENTER": 258.4878, "MEAN_ANOMALY": 127.6019, "EPHEMERIS_TYPE": 0, "CLASSIFICATION_TYPE": "U", "NORAD_CAT_ID": 30133, "ELEMENT_SET_NO": 999, "REV_AT_EPOCH": 96388, "BSTAR": 0.0022198201, "MEAN_MOTION_DOT": 3.77e-05, "MEAN_MOTION_DDOT": 0}, "tle": {"line1": "1 30133U 99025SN  25347.44142044  .00003770  00000+0  22198-2 0  9999", "line2": "2 30133  98.3242 154.0765 0085569 258.4878 127.6019 14.06677961963880"}}, "geometry": {"type": "Point", "coordinates": [-37.79650372162521, -56.59860242946709]}}]}